{
"type": "FeatureCollection",
"name": "historical_landslides",
"crs": { "type": "name", "properties": { "name": "urn:ogc:def:crs:OGC:1.3:CRS84" } },
"features": [
{ "type": "Feature", "properties": { "event_date": "2015-01-01", "event_id": "hist_00" }, "geometry": { "type": "Point", "coordinates": [ 76.876993762419218, 9.297705095217839 ] } },
{ "type": "Feature", "properties": { "event_date": "2015-04-21", "event_id": "hist_01" }, "geometry": { "type": "Point", "coordinates": [ 76.8760747147534, 12.090820810914677 ] } },
{ "type": "Feature", "properties": { "event_date": "2015-08-10", "event_id": "hist_02" }, "geometry": { "type": "Point", "coordinates": [ 76.749770897224295, 9.344145748736837 ] } },
{ "type": "Feature", "properties": { "event_date": "2015-11-29", "event_id": "hist_03" }, "geometry": { "type": "Point", "coordinates": [ 76.577517351724893, 10.974569222826061 ] } },
{ "type": "Feature", "properties": { "event_date": "2016-03-18", "event_id": "hist_04" }, "geometry": { "type": "Point", "coordinates": [ 75.730608801156492, 9.908146185682401 ] } },
{ "type": "Feature", "properties": { "event_date": "2016-07-07", "event_id": "hist_05" }, "geometry": { "type": "Point", "coordinates": [ 75.813360118507504, 11.027542707173451 ] } },
{ "type": "Feature", "properties": { "event_date": "2016-10-26", "event_id": "hist_06" }, "geometry": { "type": "Point", "coordinates": [ 76.175652545927804, 10.213518017447466 ] } },
{ "type": "Feature", "properties": { "event_date": "2017-02-13", "event_id": "hist_07" }, "geometry": { "type": "Point", "coordinates": [ 76.197243799299216, 11.446732835687701 ] } },
{ "type": "Feature", "properties": { "event_date": "2017-06-04", "event_id": "hist_08" }, "geometry": { "type": "Point", "coordinates": [ 76.108804510971311, 9.568910894913895 ] } },
{ "type": "Feature", "properties": { "event_date": "2017-09-23", "event_id": "hist_09" }, "geometry": { "type": "Point", "coordinates": [ 76.318672447866092, 11.965561077845624 ] } },
{ "type": "Feature", "properties": { "event_date": "2018-01-11", "event_id": "hist_10" }, "geometry": { "type": "Point", "coordinates": [ 75.953316836212778, 10.525744255062401 ] } },
{ "type": "Feature", "properties": { "event_date": "2018-05-02", "event_id": "hist_11" }, "geometry": { "type": "Point", "coordinates": [ 76.49867865170485, 11.434130674380629 ] } },
{ "type": "Feature", "properties": { "event_date": "2018-08-21", "event_id": "hist_12" }, "geometry": { "type": "Point", "coordinates": [ 75.833679882365374, 11.766542179474357 ] } },
{ "type": "Feature", "properties": { "event_date": "2018-12-10", "event_id": "hist_13" }, "geometry": { "type": "Point", "coordinates": [ 75.829083195114166, 12.295841568889557 ] } },
{ "type": "Feature", "properties": { "event_date": "2019-03-30", "event_id": "hist_14" }, "geometry": { "type": "Point", "coordinates": [ 75.503561539026919, 9.545007112858553 ] } },
{ "type": "Feature", "properties": { "event_date": "2019-07-19", "event_id": "hist_15" }, "geometry": { "type": "Point", "coordinates": [ 75.601939536046274, 9.768468068150264 ] } },
{ "type": "Feature", "properties": { "event_date": "2019-11-07", "event_id": "hist_16" }, "geometry": { "type": "Point", "coordinates": [ 76.660833406274179, 9.639037457898203 ] } },
{ "type": "Feature", "properties": { "event_date": "2020-02-25", "event_id": "hist_17" }, "geometry": { "type": "Point", "coordinates": [ 76.014051741728707, 9.683193229167228 ] } },
{ "type": "Feature", "properties": { "event_date": "2020-06-15", "event_id": "hist_18" }, "geometry": { "type": "Point", "coordinates": [ 75.664588458484531, 10.817678832464789 ] } },
{ "type": "Feature", "properties": { "event_date": "2020-10-04", "event_id": "hist_19" }, "geometry": { "type": "Point", "coordinates": [ 76.514945760035829, 12.277004957167744 ] } },
{ "type": "Feature", "properties": { "event_date": "2021-01-22", "event_id": "hist_20" }, "geometry": { "type": "Point", "coordinates": [ 76.186369801306981, 12.265487209179279 ] } },
{ "type": "Feature", "properties": { "event_date": "2021-05-13", "event_id": "hist_21" }, "geometry": { "type": "Point", "coordinates": [ 75.33384961827727, 10.620044971336192 ] } },
{ "type": "Feature", "properties": { "event_date": "2021-09-01", "event_id": "hist_22" }, "geometry": { "type": "Point", "coordinates": [ 75.806178331738749, 11.018546596439592 ] } },
{ "type": "Feature", "properties": { "event_date": "2021-12-21", "event_id": "hist_23" }, "geometry": { "type": "Point", "coordinates": [ 75.583202257794142, 11.802895430140701 ] } },
{ "type": "Feature", "properties": { "event_date": "2022-04-10", "event_id": "hist_24" }, "geometry": { "type": "Point", "coordinates": [ 76.349396577572548, 12.061913777509943 ] } },
{ "type": "Feature", "properties": { "event_date": "2022-07-30", "event_id": "hist_25" }, "geometry": { "type": "Point", "coordinates": [ 75.740049665008399, 9.473705227019881 ] } },
{ "type": "Feature", "properties": { "event_date": "2022-11-18", "event_id": "hist_26" }, "geometry": { "type": "Point", "coordinates": [ 75.403914846735901, 10.626323137745707 ] } },
{ "type": "Feature", "properties": { "event_date": "2023-03-08", "event_id": "hist_27" }, "geometry": { "type": "Point", "coordinates": [ 75.387895982716273, 11.706571544048369 ] } },
{ "type": "Feature", "properties": { "event_date": "2023-06-27", "event_id": "hist_28" }, "geometry": { "type": "Point", "coordinates": [ 76.230763676733943, 9.8263673720528 ] } },
{ "type": "Feature", "properties": { "event_date": "2023-10-16", "event_id": "hist_29" }, "geometry": { "type": "Point", "coordinates": [ 75.334757529126534, 10.311322100805658 ] } },
{ "type": "Feature", "properties": { "event_date": "2024-02-03", "event_id": "hist_30" }, "geometry": { "type": "Point", "coordinates": [ 77.1667, 9.4333 ] } },
{ "type": "Feature", "properties": { "event_date": "2024-05-24", "event_id": "hist_31" }, "geometry": { "type": "Point", "coordinates": [ 76.9167, 9.6833 ] } },
{ "type": "Feature", "properties": { "event_date": "2024-09-12", "event_id": "hist_32" }, "geometry": { "type": "Point", "coordinates": [ 77.08, 10.13 ] } },
{ "type": "Feature", "properties": { "event_date": "2025-01-01", "event_id": "hist_33" }, "geometry": { "type": "Point", "coordinates": [ 76.1333, 11.5167 ] } }
]
}
