{
"type": "FeatureCollection",
"name": "villages",
"crs": { "type": "name", "properties": { "name": "urn:ogc:def:crs:OGC:1.3:CRS84" } },
"features": [
{ "type": "Feature", "properties": { "location_id": "loc_000", "name": "Village 1", "district": "Thiruvananthapuram", "lat": 11.49754397237367, "lon": 76.800522327959982 }, "geometry": { "type": "Point", "coordinates": [ 76.800522327959982, 11.49754397237367 ] } },
{ "type": "Feature", "properties": { "location_id": "loc_001", "name": "Village 2", "district": "Kollam", "lat": 10.308018461119786, "lon": 76.21476488380172 }, "geometry": { "type": "Point", "coordinates": [ 76.21476488380172, 10.308018461119786 ] } },
{ "type": "Feature", "properties": { "location_id": "loc_002", "name": "Village 3", "district": "Pathanamthitta", "lat": 11.798022615685408, "lon": 76.057583041691132 }, "geometry": { "type": "Point", "coordinates": [ 76.057583041691132, 11.798022615685408 ] } },
{ "type": "Feature", "properties": { "location_id": "loc_003", "name": "Village 4", "district": "Kottayam", "lat": 11.225656503160742, "lon": 75.727161060947026 }, "geometry": { "type": "Point", "coordinates": [ 75.727161060947026, 11.225656503160742 ] } },
{ "type": "Feature", "properties": { "location_id": "loc_004", "name": "Thekkady", "district": "Idukki", "lat": 9.5333, "lon": 77.2 }, "geometry": { "type": "Point", "coordinates": [ 77.2, 9.5333 ] } },
{ "type": "Feature", "properties": { "location_id": "loc_005", "name": "Village 6", "district": "Ernakulam", "lat": 12.213459348310485, "lon": 76.133075843954458 }, "geometry": { "type": "Point", "coordinates": [ 76.133075843954458, 12.213459348310485 ] } },
{ "type": "Feature", "properties": { "location_id": "loc_006", "name": "Village 7", "district": "Thrissur", "lat": 11.452045942065753, "lon": 76.002258336488069 }, "geometry": { "type": "Point", "coordinates": [ 76.002258336488069, 11.452045942065753 ] } },
{ "type": "Feature", "properties": { "location_id": "loc_007", "name": "Village 8", "district": "Palakkas", "lat": 11.540528283733186, "lon": 75.334579327808527 }, "geometry": { "type": "Point", "coordinates": [ 75.334579327808527, 11.540528283733186 ] } },
{ "type": "Feature", "properties": { "location_id": "loc_008", "name": "Village 9", "district": "Malappuram", "lat": 9.2048033959981872, "lon": 76.622067078710984 }, "geometry": { "type": "Point", "coordinates": [ 76.622067078710984, 9.204803395998187 ] } },
{ "type": "Feature", "properties": { "location_id": "loc_009", "name": "Village 10", "district": "Kozhikode", "lat": 10.348870079529263, "lon": 76.733857234943628 }, "geometry": { "type": "Point", "coordinates": [ 76.733857234943628, 10.348870079529263 ] } },
{ "type": "Feature", "properties": { "location_id": "loc_010", "name": "Meppadi", "district": "Wayanad", "lat": 11.5833, "lon": 76.15 }, "geometry": { "type": "Point", "coordinates": [ 76.15, 11.5833 ] } },
{ "type": "Feature", "properties": { "location_id": "loc_011", "name": "Village 12", "district": "Kannur", "lat": 12.040015710412536, "lon": 76.186457829662487 }, "geometry": { "type": "Point", "coordinates": [ 76.186457829662487, 12.040015710412536 ] } },
{ "type": "Feature", "properties": { "location_id": "loc_012", "name": "Village 13", "district": "Kasaragod", "lat": 11.035721176286359, "lon": 75.473721185816714 }, "geometry": { "type": "Point", "coordinates": [ 75.473721185816714, 11.035721176286359 ] } },
{ "type": "Feature", "properties": { "location_id": "loc_013", "name": "Village 14", "district": "Alappuzha", "lat": 11.670803727111448, "lon": 76.375584148863695 }, "geometry": { "type": "Point", "coordinates": [ 76.375584148863695, 11.670803727111448 ] } },
{ "type": "Feature", "properties": { "location_id": "loc_014", "name": "Mundakkai", "district": "Wayanad", "lat": 11.5167, "lon": 76.1333 }, "geometry": { "type": "Point", "coordinates": [ 76.1333, 11.5167 ] } },
{ "type": "Feature", "properties": { "location_id": "loc_015", "name": "Village 16", "district": "Kollam", "lat": 9.5566974623359577, "lon": 76.35507621550704 }, "geometry": { "type": "Point", "coordinates": [ 76.35507621550704, 9.556697462335958 ] } },
{ "type": "Feature", "properties": { "location_id": "loc_016", "name": "Village 17", "district": "Pathanamthitta", "lat": 10.718775993906213, "lon": 76.463191382859009 }, "geometry": { "type": "Point", "coordinates": [ 76.463191382859009, 10.718775993906213 ] } },
{ "type": "Feature", "properties": { "location_id": "loc_017", "name": "Village 18", "district": "Kottayam", "lat": 8.9765512591698222, "lon": 76.529835987068253 }, "geometry": { "type": "Point", "coordinates": [ 76.529835987068253, 8.976551259169822 ] } },
{ "type": "Feature", "properties": { "location_id": "loc_018", "name": "Village 19", "district": "Idukki", "lat": 11.688090660573668, "lon": 75.472385513529431 }, "geometry": { "type": "Point", "coordinates": [ 75.472385513529431, 11.688090660573668 ] } },
{ "type": "Feature", "properties": { "location_id": "loc_019", "name": "Village 20", "district": "Ernakulam", "lat": 10.992408616883331, "lon": 76.76561895222018 }, "geometry": { "type": "Point", "coordinates": [ 76.76561895222018, 10.992408616883331 ] } },
{ "type": "Feature", "properties": { "location_id": "loc_020", "name": "Village 21", "district": "Thrissur", "lat": 11.441211477303078, "lon": 75.668342385431814 }, "geometry": { "type": "Point", "coordinates": [ 75.668342385431814, 11.441211477303078 ] } },
{ "type": "Feature", "properties": { "location_id": "loc_021", "name": "Village 22", "district": "Palakkas", "lat": 10.008567186861033, "lon": 75.359860089881892 }, "geometry": { "type": "Point", "coordinates": [ 75.359860089881892, 10.008567186861033 ] } },
{ "type": "Feature", "properties": { "location_id": "loc_022", "name": "Village 23", "district": "Malappuram", "lat": 12.195977986601907, "lon": 76.187763951026369 }, "geometry": { "type": "Point", "coordinates": [ 76.187763951026369, 12.195977986601907 ] } },
{ "type": "Feature", "properties": { "location_id": "loc_023", "name": "Village 24", "district": "Kozhikode", "lat": 11.920579980693802, "lon": 75.893475654179909 }, "geometry": { "type": "Point", "coordinates": [ 75.893475654179909, 11.920579980693802 ] } },
{ "type": "Feature", "properties": { "location_id": "loc_024", "name": "Chooralmala", "district": "Wayanad", "lat": 11.53, "lon": 76.15 }, "geometry": { "type": "Point", "coordinates": [ 76.15, 11.53 ] } },
{ "type": "Feature", "properties": { "location_id": "loc_025", "name": "Village 26", "district": "Kannur", "lat": 9.4409674128744854, "lon": 76.593202355302893 }, "geometry": { "type": "Point", "coordinates": [ 76.593202355302893, 9.440967412874485 ] } },
{ "type": "Feature", "properties": { "location_id": "loc_026", "name": "Village 27", "district": "Kasaragod", "lat": 10.406859563230972, "lon": 75.807422228516344 }, "geometry": { "type": "Point", "coordinates": [ 75.807422228516344, 10.406859563230972 ] } },
{ "type": "Feature", "properties": { "location_id": "loc_027", "name": "Village 28", "district": "Alappuzha", "lat": 8.9055033685446627, "lon": 76.824639032111591 }, "geometry": { "type": "Point", "coordinates": [ 76.824639032111591, 8.905503368544663 ] } },
{ "type": "Feature", "properties": { "location_id": "loc_028", "name": "Village 29", "district": "Thiruvananthapuram", "lat": 9.2977276968397948, "lon": 75.765468541024191 }, "geometry": { "type": "Point", "coordinates": [ 75.765468541024191, 9.297727696839795 ] } },
{ "type": "Feature", "properties": { "location_id": "loc_029", "name": "Punalur", "district": "Kollam", "lat": 9.0167, "lon": 77.0167 }, "geometry": { "type": "Point", "coordinates": [ 77.0167, 9.0167 ] } },
{ "type": "Feature", "properties": { "location_id": "loc_030", "name": "Village 31", "district": "Pathanamthitta", "lat": 11.393905653472752, "lon": 75.709544144908165 }, "geometry": { "type": "Point", "coordinates": [ 75.709544144908165, 11.393905653472752 ] } },
{ "type": "Feature", "properties": { "location_id": "loc_031", "name": "Village 32", "district": "Kottayam", "lat": 12.184659550141447, "lon": 76.797669712078346 }, "geometry": { "type": "Point", "coordinates": [ 76.797669712078346, 12.184659550141447 ] } },
{ "type": "Feature", "properties": { "location_id": "loc_032", "name": "Village 33", "district": "Idukki", "lat": 9.9066800213904394, "lon": 75.563372508131224 }, "geometry": { "type": "Point", "coordinates": [ 75.563372508131224, 9.906680021390439 ] } },
{ "type": "Feature", "properties": { "location_id": "loc_033", "name": "Village 34", "district": "Ernakulam", "lat": 10.065131956423786, "lon": 75.371856991027727 }, "geometry": { "type": "Point", "coordinates": [ 75.371856991027727, 10.065131956423786 ] } },
{ "type": "Feature", "properties": { "location_id": "loc_034", "name": "Village 35", "district": "Thrissur", "lat": 10.416923130029119, "lon": 75.996155296004858 }, "geometry": { "type": "Point", "coordinates": [ 75.996155296004858, 10.416923130029119 ] } },
{ "type": "Feature", "properties": { "location_id": "loc_035", "name": "Village 36", "district": "Palakkas", "lat": 9.4226233247492139, "lon": 76.887800902489346 }, "geometry": { "type": "Point", "coordinates": [ 76.887800902489346, 9.422623324749214 ] } },
{ "type": "Feature", "properties": { "location_id": "loc_036", "name": "Village 37", "district": "Malappuram", "lat": 9.2112213439409238, "lon": 76.726683626007869 }, "geometry": { "type": "Point", "coordinates": [ 76.726683626007869, 9.211221343940924 ] } },
{ "type": "Feature", "properties": { "location_id": "loc_037", "name": "Village 38", "district": "Kozhikode", "lat": 10.438752488102065, "lon": 76.497772831131115 }, "geometry": { "type": "Point", "coordinates": [ 76.497772831131115, 10.438752488102065 ] } },
{ "type": "Feature", "properties": { "location_id": "loc_038", "name": "Kambalakkad", "district": "Wayanad", "lat": 11.6, "lon": 76.2 }, "geometry": { "type": "Point", "coordinates": [ 76.2, 11.6 ] } },
{ "type": "Feature", "properties": { "location_id": "loc_039", "name": "Village 40", "district": "Kannur", "lat": 11.127839681122913, "lon": 76.729514623516593 }, "geometry": { "type": "Point", "coordinates": [ 76.729514623516593, 11.127839681122913 ] } },
{ "type": "Feature", "properties": { "location_id": "loc_040", "name": "Village 41", "district": "Kasaragod", "lat": 10.301889311996774, "lon": 76.130173376618316 }, "geometry": { "type": "Point", "coordinates": [ 76.130173376618316, 10.301889311996774 ] } },
{ "type": "Feature", "properties": { "location_id": "loc_041", "name": "Village 42", "district": "Alappuzha", "lat": 11.706007596005323, "lon": 75.805486482929268 }, "geometry": { "type": "Point", "coordinates": [ 75.805486482929268, 11.706007596005323 ] } },
{ "type": "Feature", "properties": { "location_id": "loc_042", "name": "Village 43", "district": "Thiruvananthapuram", "lat": 11.235941112107986, "lon": 76.535219891377579 }, "geometry": { "type": "Point", "coordinates": [ 76.535219891377579, 11.235941112107986 ] } },
{ "type": "Feature", "properties": { "location_id": "loc_043", "name": "Village 44", "district": "Kollam", "lat": 9.8589015769062467, "lon": 76.358658021068422 }, "geometry": { "type": "Point", "coordinates": [ 76.358658021068422, 9.858901576906247 ] } },
{ "type": "Feature", "properties": { "location_id": "loc_044", "name": "Village 45", "district": "Pathanamthitta", "lat": 11.704522294952964, "lon": 75.897852366197938 }, "geometry": { "type": "Point", "coordinates": [ 75.897852366197938, 11.704522294952964 ] } },
{ "type": "Feature", "properties": { "location_id": "loc_045", "name": "Village 46", "district": "Kottayam", "lat": 11.606913469113646, "lon": 75.451146668898417 }, "geometry": { "type": "Point", "coordinates": [ 75.451146668898417, 11.606913469113646 ] } },
{ "type": "Feature", "properties": { "location_id": "loc_046", "name": "Village 47", "district": "Idukki", "lat": 10.12554824555712, "lon": 76.494863378158442 }, "geometry": { "type": "Point", "coordinates": [ 76.494863378158442, 10.12554824555712 ] } },
{ "type": "Feature", "properties": { "location_id": "loc_047", "name": "Village 48", "district": "Ernakulam", "lat": 9.773564768952367, "lon": 75.71993682547658 }, "geometry": { "type": "Point", "coordinates": [ 75.71993682547658, 9.773564768952367 ] } },
{ "type": "Feature", "properties": { "location_id": "loc_048", "name": "Village 49", "district": "Thrissur", "lat": 11.172859039111163, "lon": 76.798901040854048 }, "geometry": { "type": "Point", "coordinates": [ 76.798901040854048, 11.172859039111163 ] } },
{ "type": "Feature", "properties": { "location_id": "loc_049", "name": "Village 50", "district": "Palakkas", "lat": 9.2461213168130492, "lon": 75.685552920009101 }, "geometry": { "type": "Point", "coordinates": [ 75.685552920009101, 9.246121316813049 ] } },
{ "type": "Feature", "properties": { "location_id": "loc_050", "name": "Munnar", "district": "Idukki", "lat": 10.0883, "lon": 77.0594 }, "geometry": { "type": "Point", "coordinates": [ 77.0594, 10.0883 ] } },
{ "type": "Feature", "properties": { "location_id": "loc_051", "name": "Village 52", "district": "Kozhikode", "lat": 8.7761360576160694, "lon": 76.629780275399852 }, "geometry": { "type": "Point", "coordinates": [ 76.629780275399852, 8.776136057616069 ] } },
{ "type": "Feature", "properties": { "location_id": "loc_052", "name": "Kalpetta", "district": "Wayanad", "lat": 11.61, "lon": 76.25 }, "geometry": { "type": "Point", "coordinates": [ 76.25, 11.61 ] } },
{ "type": "Feature", "properties": { "location_id": "loc_053", "name": "Village 54", "district": "Kannur", "lat": 11.110220540901715, "lon": 75.586829293052375 }, "geometry": { "type": "Point", "coordinates": [ 75.586829293052375, 11.110220540901715 ] } },
{ "type": "Feature", "properties": { "location_id": "loc_054", "name": "Village 55", "district": "Kasaragod", "lat": 11.25333709412349, "lon": 76.259012466433347 }, "geometry": { "type": "Point", "coordinates": [ 76.259012466433347, 11.25333709412349 ] } },
{ "type": "Feature", "properties": { "location_id": "loc_055", "name": "Village 56", "district": "Alappuzha", "lat": 11.521588060127986, "lon": 76.699299265339945 }, "geometry": { "type": "Point", "coordinates": [ 76.699299265339945, 11.521588060127986 ] } },
{ "type": "Feature", "properties": { "location_id": "loc_056", "name": "Village 57", "district": "Thiruvananthapuram", "lat": 10.379151003161107, "lon": 75.614295465143314 }, "geometry": { "type": "Point", "coordinates": [ 75.614295465143314, 10.379151003161107 ] } },
{ "type": "Feature", "properties": { "location_id": "loc_057", "name": "Village 58", "district": "Kollam", "lat": 10.769031245632773, "lon": 75.796517876640152 }, "geometry": { "type": "Point", "coordinates": [ 75.796517876640152, 10.769031245632773 ] } },
{ "type": "Feature", "properties": { "location_id": "loc_058", "name": "Village 59", "district": "Pathanamthitta", "lat": 9.2462793433531836, "lon": 76.543847741185886 }, "geometry": { "type": "Point", "coordinates": [ 76.543847741185886, 9.246279343353184 ] } },
{ "type": "Feature", "properties": { "location_id": "loc_059", "name": "Village 60", "district": "Kottayam", "lat": 9.1565817610527063, "lon": 76.854922281697554 }, "geometry": { "type": "Point", "coordinates": [ 76.854922281697554, 9.156581761052706 ] } },
{ "type": "Feature", "properties": { "location_id": "loc_060", "name": "Village 61", "district": "Idukki", "lat": 11.122830514356174, "lon": 76.101185897923756 }, "geometry": { "type": "Point", "coordinates": [ 76.101185897923756, 11.122830514356174 ] } },
{ "type": "Feature", "properties": { "location_id": "loc_061", "name": "Village 62", "district": "Ernakulam", "lat": 10.42239153180812, "lon": 75.530236004081999 }, "geometry": { "type": "Point", "coordinates": [ 75.530236004081999, 10.42239153180812 ] } },
{ "type": "Feature", "properties": { "location_id": "loc_062", "name": "Village 63", "district": "Thrissur", "lat": 10.75658817800822, "lon": 75.322298060333125 }, "geometry": { "type": "Point", "coordinates": [ 75.322298060333125, 10.75658817800822 ] } },
{ "type": "Feature", "properties": { "location_id": "loc_063", "name": "Village 64", "district": "Palakkas", "lat": 11.465745943826892, "lon": 75.667449647998168 }, "geometry": { "type": "Point", "coordinates": [ 75.667449647998168, 11.465745943826892 ] } },
{ "type": "Feature", "properties": { "location_id": "loc_064", "name": "Village 65", "district": "Malappuram", "lat": 11.003250036002097, "lon": 75.510915548458428 }, "geometry": { "type": "Point", "coordinates": [ 75.510915548458428, 11.003250036002097 ] } },
{ "type": "Feature", "properties": { "location_id": "loc_065", "name": "Village 66", "district": "Kozhikode", "lat": 10.715206872335886, "lon": 76.38425387778058 }, "geometry": { "type": "Point", "coordinates": [ 76.38425387778058, 10.715206872335886 ] } },
{ "type": "Feature", "properties": { "location_id": "loc_066", "name": "Pulpally", "district": "Wayanad", "lat": 11.65, "lon": 76.2 }, "geometry": { "type": "Point", "coordinates": [ 76.2, 11.65 ] } },
{ "type": "Feature", "properties": { "location_id": "loc_067", "name": "Village 68", "district": "Kannur", "lat": 9.829022848122273, "lon": 76.11012789059302 }, "geometry": { "type": "Point", "coordinates": [ 76.11012789059302, 9.829022848122273 ] } },
{ "type": "Feature", "properties": { "location_id": "loc_068", "name": "Village 69", "district": "Kasaragod", "lat": 8.8594033127161858, "lon": 76.410819897028617 }, "geometry": { "type": "Point", "coordinates": [ 76.410819897028617, 8.859403312716186 ] } },
{ "type": "Feature", "properties": { "location_id": "loc_069", "name": "Village 70", "district": "Alappuzha", "lat": 10.300346731774887, "lon": 76.229786574753447 }, "geometry": { "type": "Point", "coordinates": [ 76.229786574753447, 10.300346731774887 ] } },
{ "type": "Feature", "properties": { "location_id": "loc_070", "name": "Village 71", "district": "Thiruvananthapuram", "lat": 9.5117755885093285, "lon": 75.619641042656085 }, "geometry": { "type": "Point", "coordinates": [ 75.619641042656085, 9.511775588509328 ] } },
{ "type": "Feature", "properties": { "location_id": "loc_071", "name": "Village 72", "district": "Kollam", "lat": 10.200276685222459, "lon": 76.586599241891619 }, "geometry": { "type": "Point", "coordinates": [ 76.586599241891619, 10.200276685222459 ] } },
{ "type": "Feature", "properties": { "location_id": "loc_072", "name": "Gavi", "district": "Pathanamthitta", "lat": 9.4333, "lon": 77.1667 }, "geometry": { "type": "Point", "coordinates": [ 77.1667, 9.4333 ] } },
{ "type": "Feature", "properties": { "location_id": "loc_073", "name": "Village 74", "district": "Kottayam", "lat": 9.580485174821959, "lon": 76.482374406264867 }, "geometry": { "type": "Point", "coordinates": [ 76.482374406264867, 9.580485174821959 ] } },
{ "type": "Feature", "properties": { "location_id": "loc_074", "name": "Village 75", "district": "Idukki", "lat": 8.9569747329961835, "lon": 75.509692402491694 }, "geometry": { "type": "Point", "coordinates": [ 75.509692402491694, 8.956974732996184 ] } },
{ "type": "Feature", "properties": { "location_id": "loc_075", "name": "Village 76", "district": "Ernakulam", "lat": 9.7489128166780876, "lon": 75.498006085840544 }, "geometry": { "type": "Point", "coordinates": [ 75.498006085840544, 9.748912816678088 ] } },
{ "type": "Feature", "properties": { "location_id": "loc_076", "name": "Village 77", "district": "Thrissur", "lat": 9.7922578400717271, "lon": 76.784100081610418 }, "geometry": { "type": "Point", "coordinates": [ 76.784100081610418, 9.792257840071727 ] } },
{ "type": "Feature", "properties": { "location_id": "loc_077", "name": "Village 78", "district": "Palakkas", "lat": 11.099803627280478, "lon": 75.936125110119903 }, "geometry": { "type": "Point", "coordinates": [ 75.936125110119903, 11.099803627280478 ] } },
{ "type": "Feature", "properties": { "location_id": "loc_078", "name": "Village 79", "district": "Malappuram", "lat": 10.727464140811538, "lon": 75.781517906849501 }, "geometry": { "type": "Point", "coordinates": [ 75.781517906849501, 10.727464140811538 ] } },
{ "type": "Feature", "properties": { "location_id": "loc_079", "name": "Village 80", "district": "Kozhikode", "lat": 11.532838642327768, "lon": 76.081734472562459 }, "geometry": { "type": "Point", "coordinates": [ 76.081734472562459, 11.532838642327768 ] } },
{ "type": "Feature", "properties": { "location_id": "loc_080", "name": "Sulthan Bathery", "district": "Wayanad", "lat": 11.67, "lon": 76.27 }, "geometry": { "type": "Point", "coordinates": [ 76.27, 11.67 ] } },
{ "type": "Feature", "properties": { "location_id": "loc_081", "name": "Village 82", "district": "Kannur", "lat": 10.19267335811225, "lon": 76.828997211275151 }, "geometry": { "type": "Point", "coordinates": [ 76.828997211275151, 10.19267335811225 ] } },
{ "type": "Feature", "properties": { "location_id": "loc_082", "name": "Village 83", "district": "Kasaragod", "lat": 11.639772365564424, "lon": 75.75831396301129 }, "geometry": { "type": "Point", "coordinates": [ 75.75831396301129, 11.639772365564424 ] } },
{ "type": "Feature", "properties": { "location_id": "loc_083", "name": "Village 84", "district": "Alappuzha", "lat": 9.3427538656723499, "lon": 76.779693486899248 }, "geometry": { "type": "Point", "coordinates": [ 76.779693486899248, 9.34275386567235 ] } },
{ "type": "Feature", "properties": { "location_id": "loc_084", "name": "Village 85", "district": "Thiruvananthapuram", "lat": 8.8306278596252046, "lon": 75.339775186218006 }, "geometry": { "type": "Point", "coordinates": [ 75.339775186218006, 8.830627859625205 ] } },
{ "type": "Feature", "properties": { "location_id": "loc_085", "name": "Village 86", "district": "Kollam", "lat": 9.0696699057535284, "lon": 76.188316867722918 }, "geometry": { "type": "Point", "coordinates": [ 76.188316867722918, 9.069669905753528 ] } },
{ "type": "Feature", "properties": { "location_id": "loc_086", "name": "Village 87", "district": "Pathanamthitta", "lat": 11.3143756946174, "lon": 76.314360178689739 }, "geometry": { "type": "Point", "coordinates": [ 76.314360178689739, 11.3143756946174 ] } },
{ "type": "Feature", "properties": { "location_id": "loc_087", "name": "Village 88", "district": "Kottayam", "lat": 10.389664167392425, "lon": 75.469435846001204 }, "geometry": { "type": "Point", "coordinates": [ 75.469435846001204, 10.389664167392425 ] } },
{ "type": "Feature", "properties": { "location_id": "loc_088", "name": "Village 89", "district": "Idukki", "lat": 9.3225148155692867, "lon": 75.524543355302256 }, "geometry": { "type": "Point", "coordinates": [ 75.524543355302256, 9.322514815569287 ] } },
{ "type": "Feature", "properties": { "location_id": "loc_089", "name": "Village 90", "district": "Ernakulam", "lat": 10.528708951616942, "lon": 75.970582910906089 }, "geometry": { "type": "Point", "coordinates": [ 75.970582910906089, 10.528708951616942 ] } },
{ "type": "Feature", "properties": { "location_id": "loc_090", "name": "Village 91", "district": "Thrissur", "lat": 9.2907079646317481, "lon": 76.84597105942909 }, "geometry": { "type": "Point", "coordinates": [ 76.84597105942909, 9.290707964631748 ] } },
{ "type": "Feature", "properties": { "location_id": "loc_091", "name": "Village 92", "district": "Palakkas", "lat": 11.221937331525965, "lon": 76.253668085174994 }, "geometry": { "type": "Point", "coordinates": [ 76.253668085174994, 11.221937331525965 ] } },
{ "type": "Feature", "properties": { "location_id": "loc_092", "name": "Village 93", "district": "Malappuram", "lat": 10.33385477828781, "lon": 76.792837154560345 }, "geometry": { "type": "Point", "coordinates": [ 76.792837154560345, 10.33385477828781 ] } },
{ "type": "Feature", "properties": { "location_id": "loc_093", "name": "Village 94", "district": "Kozhikode", "lat": 10.102625352642512, "lon": 76.586977464980762 }, "geometry": { "type": "Point", "coordinates": [ 76.586977464980762, 10.102625352642512 ] } },
{ "type": "Feature", "properties": { "location_id": "loc_094", "name": "Mananthavady", "district": "Wayanad", "lat": 11.7, "lon": 76.2 }, "geometry": { "type": "Point", "coordinates": [ 76.2, 11.7 ] } },
{ "type": "Feature", "properties": { "location_id": "loc_095", "name": "Village 96", "district": "Kannur", "lat": 10.987503205572054, "lon": 76.555621518803505 }, "geometry": { "type": "Point", "coordinates": [ 76.555621518803505, 10.987503205572054 ] } },
{ "type": "Feature", "properties": { "location_id": "loc_096", "name": "Village 97", "district": "Kasaragod", "lat": 10.034434767464536, "lon": 75.328538854363174 }, "geometry": { "type": "Point", "coordinates": [ 75.328538854363174, 10.034434767464536 ] } },
{ "type": "Feature", "properties": { "location_id": "loc_097", "name": "Village 98", "district": "Alappuzha", "lat": 9.0611572135721588, "lon": 75.474630394825169 }, "geometry": { "type": "Point", "coordinates": [ 75.474630394825169, 9.061157213572159 ] } },
{ "type": "Feature", "properties": { "location_id": "loc_098", "name": "Village 99", "district": "Thiruvananthapuram", "lat": 9.168920952527829, "lon": 76.627085783812376 }, "geometry": { "type": "Point", "coordinates": [ 76.627085783812376, 9.168920952527829 ] } },
{ "type": "Feature", "properties": { "location_id": "loc_099", "name": "Village 100", "district": "Kollam", "lat": 12.164736709150777, "lon": 76.574907341320269 }, "geometry": { "type": "Point", "coordinates": [ 76.574907341320269, 12.164736709150777 ] } },
{ "type": "Feature", "properties": { "location_id": "loc_100", "name": "Village 101", "district": "Pathanamthitta", "lat": 11.975461452012006, "lon": 75.672225187146296 }, "geometry": { "type": "Point", "coordinates": [ 75.672225187146296, 11.975461452012006 ] } },
{ "type": "Feature", "properties": { "location_id": "loc_101", "name": "Vagamon", "district": "Kottayam", "lat": 9.6833, "lon": 76.9167 }, "geometry": { "type": "Point", "coordinates": [ 76.9167, 9.6833 ] } },
{ "type": "Feature", "properties": { "location_id": "loc_102", "name": "Village 103", "district": "Idukki", "lat": 9.6938383631812943, "lon": 76.269625313120017 }, "geometry": { "type": "Point", "coordinates": [ 76.269625313120017, 9.693838363181294 ] } },
{ "type": "Feature", "properties": { "location_id": "loc_103", "name": "Village 104", "district": "Ernakulam", "lat": 12.190576139584421, "lon": 76.688382326041619 }, "geometry": { "type": "Point", "coordinates": [ 76.688382326041619, 12.190576139584421 ] } },
{ "type": "Feature", "properties": { "location_id": "loc_104", "name": "Village 105", "district": "Thrissur", "lat": 11.514565709078571, "lon": 76.264971451741957 }, "geometry": { "type": "Point", "coordinates": [ 76.264971451741957, 11.514565709078571 ] } },
{ "type": "Feature", "properties": { "location_id": "loc_105", "name": "Village 106", "district": "Palakkas", "lat": 11.294960171514434, "lon": 75.960114510837883 }, "geometry": { "type": "Point", "coordinates": [ 75.960114510837883, 11.294960171514434 ] } },
{ "type": "Feature", "properties": { "location_id": "loc_106", "name": "Village 107", "district": "Malappuram", "lat": 10.34523333261045, "lon": 75.898694469451499 }, "geometry": { "type": "Point", "coordinates": [ 75.898694469451499, 10.34523333261045 ] } },
{ "type": "Feature", "properties": { "location_id": "loc_107", "name": "Village 108", "district": "Kozhikode", "lat": 9.7164575445503143, "lon": 75.981411338197617 }, "geometry": { "type": "Point", "coordinates": [ 75.981411338197617, 9.716457544550314 ] } },
{ "type": "Feature", "properties": { "location_id": "loc_108", "name": "Padinharethara", "district": "Wayanad", "lat": 11.58, "lon": 76.1 }, "geometry": { "type": "Point", "coordinates": [ 76.1, 11.58 ] } },
{ "type": "Feature", "properties": { "location_id": "loc_109", "name": "Village 110", "district": "Kannur", "lat": 11.954238507730638, "lon": 76.687985010803729 }, "geometry": { "type": "Point", "coordinates": [ 76.687985010803729, 11.954238507730638 ] } },
{ "type": "Feature", "properties": { "location_id": "loc_110", "name": "Village 111", "district": "Kasaragod", "lat": 10.36800582890932, "lon": 76.026235011322086 }, "geometry": { "type": "Point", "coordinates": [ 76.026235011322086, 10.36800582890932 ] } },
{ "type": "Feature", "properties": { "location_id": "loc_111", "name": "Village 112", "district": "Alappuzha", "lat": 9.468389945023068, "lon": 75.696543300722169 }, "geometry": { "type": "Point", "coordinates": [ 75.696543300722169, 9.468389945023068 ] } },
{ "type": "Feature", "properties": { "location_id": "loc_112", "name": "Village 113", "district": "Thiruvananthapuram", "lat": 9.8361460157348173, "lon": 75.678659780796124 }, "geometry": { "type": "Point", "coordinates": [ 75.678659780796124, 9.836146015734817 ] } },
{ "type": "Feature", "properties": { "location_id": "loc_113", "name": "Village 114", "district": "Kollam", "lat": 10.80622946974373, "lon": 76.493622848389521 }, "geometry": { "type": "Point", "coordinates": [ 76.493622848389521, 10.80622946974373 ] } },
{ "type": "Feature", "properties": { "location_id": "loc_114", "name": "Village 115", "district": "Pathanamthitta", "lat": 9.3775433794342735, "lon": 76.606510021478257 }, "geometry": { "type": "Point", "coordinates": [ 76.606510021478257, 9.377543379434274 ] } },
{ "type": "Feature", "properties": { "location_id": "loc_115", "name": "Village 116", "district": "Kottayam", "lat": 11.790980708527933, "lon": 75.468444927766598 }, "geometry": { "type": "Point", "coordinates": [ 75.468444927766598, 11.790980708527933 ] } },
{ "type": "Feature", "properties": { "location_id": "loc_116", "name": "Village 117", "district": "Idukki", "lat": 11.442744330914996, "lon": 75.406494171128287 }, "geometry": { "type": "Point", "coordinates": [ 75.406494171128287, 11.442744330914996 ] } },
{ "type": "Feature", "properties": { "location_id": "loc_117", "name": "Village 118", "district": "Ernakulam", "lat": 11.304093493625826, "lon": 76.251093862010322 }, "geometry": { "type": "Point", "coordinates": [ 76.251093862010322, 11.304093493625826 ] } },
{ "type": "Feature", "properties": { "location_id": "loc_118", "name": "Village 119", "district": "Thrissur", "lat": 10.283930291201619, "lon": 75.53387719070831 }, "geometry": { "type": "Point", "coordinates": [ 75.53387719070831, 10.283930291201619 ] } },
{ "type": "Feature", "properties": { "location_id": "loc_119", "name": "Village 120", "district": "Palakkas", "lat": 10.976946384493674, "lon": 76.619462704730154 }, "geometry": { "type": "Point", "coordinates": [ 76.619462704730154, 10.976946384493674 ] } },
{ "type": "Feature", "properties": { "location_id": "loc_120", "name": "Village 121", "district": "Malappuram", "lat": 10.823547789640212, "lon": 75.796535478278514 }, "geometry": { "type": "Point", "coordinates": [ 75.796535478278514, 10.823547789640212 ] } },
{ "type": "Feature", "properties": { "location_id": "loc_121", "name": "Village 122", "district": "Kozhikode", "lat": 11.056955435519612, "lon": 75.530195092753829 }, "geometry": { "type": "Point", "coordinates": [ 75.530195092753829, 11.056955435519612 ] } },
{ "type": "Feature", "properties": { "location_id": "loc_122", "name": "Vellamunda", "district": "Wayanad", "lat": 11.55, "lon": 76.05 }, "geometry": { "type": "Point", "coordinates": [ 76.05, 11.55 ] } },
{ "type": "Feature", "properties": { "location_id": "loc_123", "name": "Village 124", "district": "Kannur", "lat": 10.226116277705664, "lon": 75.564850756376444 }, "geometry": { "type": "Point", "coordinates": [ 75.564850756376444, 10.226116277705664 ] } },
{ "type": "Feature", "properties": { "location_id": "loc_124", "name": "Village 125", "district": "Kasaragod", "lat": 8.8977303172097191, "lon": 75.7555521317407 }, "geometry": { "type": "Point", "coordinates": [ 75.7555521317407, 8.897730317209719 ] } },
{ "type": "Feature", "properties": { "location_id": "loc_125", "name": "Village 126", "district": "Alappuzha", "lat": 10.503667408318043, "lon": 75.545781432307294 }, "geometry": { "type": "Point", "coordinates": [ 75.545781432307294, 10.503667408318043 ] } },
{ "type": "Feature", "properties": { "location_id": "loc_126", "name": "Village 127", "district": "Thiruvananthapuram", "lat": 9.9210073037813888, "lon": 75.484784101864562 }, "geometry": { "type": "Point", "coordinates": [ 75.484784101864562, 9.921007303781389 ] } },
{ "type": "Feature", "properties": { "location_id": "loc_127", "name": "Village 128", "district": "Kollam", "lat": 9.263060870474467, "lon": 75.333836826138295 }, "geometry": { "type": "Point", "coordinates": [ 75.333836826138295, 9.263060870474467 ] } },
{ "type": "Feature", "properties": { "location_id": "loc_128", "name": "Village 129", "district": "Pathanamthitta", "lat": 9.1170805354150577, "lon": 75.388632654662814 }, "geometry": { "type": "Point", "coordinates": [ 75.388632654662814, 9.117080535415058 ] } },
{ "type": "Feature", "properties": { "location_id": "loc_129", "name": "Village 130", "district": "Kottayam", "lat": 10.836138231230878, "lon": 75.579426353497368 }, "geometry": { "type": "Point", "coordinates": [ 75.579426353497368, 10.836138231230878 ] } },
{ "type": "Feature", "properties": { "location_id": "loc_130", "name": "Village 131", "district": "Idukki", "lat": 9.3556050383059457, "lon": 75.385411092203483 }, "geometry": { "type": "Point", "coordinates": [ 75.385411092203483, 9.355605038305946 ] } },
{ "type": "Feature", "properties": { "location_id": "loc_131", "name": "Village 132", "district": "Ernakulam", "lat": 12.034176420237632, "lon": 76.245830105777557 }, "geometry": { "type": "Point", "coordinates": [ 76.245830105777557, 12.034176420237632 ] } },
{ "type": "Feature", "properties": { "location_id": "loc_132", "name": "Village 133", "district": "Thrissur", "lat": 10.812767045936402, "lon": 76.389143242879214 }, "geometry": { "type": "Point", "coordinates": [ 76.389143242879214, 10.812767045936402 ] } },
{ "type": "Feature", "properties": { "location_id": "loc_133", "name": "Village 134", "district": "Palakkas", "lat": 9.981387806098672, "lon": 75.929808730931242 }, "geometry": { "type": "Point", "coordinates": [ 75.929808730931242, 9.981387806098672 ] } },
{ "type": "Feature", "properties": { "location_id": "loc_134", "name": "Village 135", "district": "Malappuram", "lat": 10.847749994759029, "lon": 75.808785755123282 }, "geometry": { "type": "Point", "coordinates": [ 75.808785755123282, 10.847749994759029 ] } },
{ "type": "Feature", "properties": { "location_id": "loc_135", "name": "Village 136", "district": "Kozhikode", "lat": 8.8309537421554261, "lon": 76.107241979235567 }, "geometry": { "type": "Point", "coordinates": [ 76.107241979235567, 8.830953742155426 ] } },
{ "type": "Feature", "properties": { "location_id": "loc_136", "name": "Munnar-Highlands", "district": "Idukki", "lat": 10.13, "lon": 77.08 }, "geometry": { "type": "Point", "coordinates": [ 77.08, 10.13 ] } },
{ "type": "Feature", "properties": { "location_id": "loc_137", "name": "Village 138", "district": "Kannur", "lat": 10.462177201147297, "lon": 76.661810602915537 }, "geometry": { "type": "Point", "coordinates": [ 76.661810602915537, 10.462177201147297 ] } },
{ "type": "Feature", "properties": { "location_id": "loc_138", "name": "Village 139", "district": "Kasaragod", "lat": 11.528710056738516, "lon": 75.369560099220465 }, "geometry": { "type": "Point", "coordinates": [ 75.369560099220465, 11.528710056738516 ] } },
{ "type": "Feature", "properties": { "location_id": "loc_139", "name": "Village 140", "district": "Alappuzha", "lat": 9.0436914997246571, "lon": 75.590397455354434 }, "geometry": { "type": "Point", "coordinates": [ 75.590397455354434, 9.043691499724657 ] } },
{ "type": "Feature", "properties": { "location_id": "loc_140", "name": "Village 141", "district": "Thiruvananthapuram", "lat": 10.477637074475469, "lon": 75.678791793767033 }, "geometry": { "type": "Point", "coordinates": [ 75.678791793767033, 10.477637074475469 ] } },
{ "type": "Feature", "properties": { "location_id": "loc_141", "name": "Village 142", "district": "Kollam", "lat": 10.492009829958549, "lon": 75.699020121331543 }, "geometry": { "type": "Point", "coordinates": [ 75.699020121331543, 10.492009829958549 ] } }
]
}
